{"type": "FeatureCollection", "features": [ {"type": "Feature", "properties": {"norad_id": 35890, "name": "COSMOS 2251 DEB", "group": "cosmos-2251-debris", "lat": 69.5313052880307, "lon": 2.763945231770903, "alt_km": 704.2065649963188, "timestamp": "2025-12-17T15:50:10.178751+00:00", "meta": {"OBJECT_NAME": "COSMOS 2251 DEB", "OBJECT_ID": "1993-036AUD", "EPOCH": "2025-12-16T22:53:46.078656", "MEAN_MOTION": 14.57543512, "ECCENTRICITY": 0.00539437, "INCLINATION": 73.9365, "RA_OF_ASC_NODE": 234.6414, "ARG_OF_PERICENTER": 358.5125, "MEAN_ANOMALY": 1.5869, "EPHEMERIS_TYPE": 0, "CLASSIFICATION_TYPE": "U", "NORAD_CAT_ID": 35890, "ELEMENT_SET_NO": 999, "REV_AT_EPOCH": 65212, "BSTAR": 0.0012168345, "MEAN_MOTION_DOT": 5.621e-05, "MEAN_MOTION_DDOT": 0}, "tle": {"line1": "1 35890U 93036AUD 25350.95400554  .00005621  00000+0  12168-2 0  9996", "line2": "2 35890  73.9365 234.6414 0053943 358.5125   1.5869 14.57543512652129"}}, "geometry": {"type": "Point", "coordinates": [2.763945231770903, 69.5313052880307]}}, {"type": "Feature", "properties": {"norad_id": 35891, "name": "COSMOS 2251 DEB", "group": "cosmos-2251-debris", "lat": -72.84085893853444, "lon": -28.242630880922775, "alt_km": 452.9208067041518, "timestamp": "2025-12-17T15:50:10.178761+00:00", "meta": {"OBJECT_NAME": "COSMOS 2251 DEB", "OBJECT_ID": "1993-036AUE", "EPOCH": "2025-12-15T00:03:56.102688", "MEAN_MOTION": 15.335426, "ECCENTRICITY": 0.00432858, "INCLINATION": 73.9883, "RA_OF_ASC_NODE": 89.017, "ARG_OF_PERICENTER": 219.4473, "MEAN_ANOMALY": 140.3579, "EPHEMERIS_TYPE": 0, "CLASSIFICATION_TYPE": "U", "NORAD_CAT_ID": 35891, "ELEMENT_SET_NO": 999, "REV_AT_EPOCH": 67255, "BSTAR": 0.00088892356, "MEAN_MOTION_DOT": 0.00029776, "MEAN_MOTION_DDOT": 0}, "tle": {"line1": "1 35891U 93036AUE 25349.00273267  .00029776  00000+0  88892-3 0  9995", "line2": "2 35891  73.9883  89.0170 0043285 219.4473 140.3579 15.33542600672556"}}, "geometry": {"type": "Point", "coordinates": [-28.242630880922775, -72.84085893853444]}}, {"type": "Feature", "properties": {"norad_id": 35895, "name": "COSMOS 2251 DEB", "group": "cosmos-2251-debris", "lat": 40.51220764715499, "lon": -6.721867949368545, "alt_km": 763.7942368474105, "timestamp": "2025-12-17T15:50:10.178771+00:00", "meta": {"OBJECT_NAME": "COSMOS 2251 DEB", "OBJECT_ID": "1993-036AUJ", "EPOCH": "2025-12-11T07:10:31.732032", "MEAN_MOTION": 14.01513994, "ECCENTRICITY": 0.01987879, "INCLINATION": 74.0502, "RA_OF_ASC_NODE": 350.1634, "ARG_OF_PERICENTER": 88.7843, "MEAN_ANOMALY": 273.6056, "EPHEMERIS_TYPE": 0, "CLASSIFICATION_TYPE": "U", "NORAD_CAT_ID": 35895, "ELEMENT_SET_NO": 999, "REV_AT_EPOCH": 58992, "BSTAR": 0.0020881347, "MEAN_MOTION_DOT": 3.73e-05, "MEAN_MOTION_DDOT": 0}, "tle": {"line1": "1 35895U 93036AUJ 25345.29897838  .00003730  00000+0  20881-2 0  9997", "line2": "2 35895  74.0502 350.1634 0198787  88.7843 273.6056 14.01513994589929"}}, "geometry": {"type": "Point", "coordinates": [-6.721867949368545, 40.51220764715499]}}, {"type": "Feature", "properties": {"norad_id": 35898, "name": "COSMOS 2251 DEB", "group": "cosmos-2251-debris", "lat": 57.440119718930646, "lon": 80.78864514913815, "alt_km": 540.7542947450193, "timestamp": "2025-12-17T15:50:10.178782+00:00", "meta": {"OBJECT_NAME": "COSMOS 2251 DEB", "OBJECT_ID": "1993-036AUM", "EPOCH": "2025-12-17T02:32:30.687072", "MEAN_MOTION": 14.94779467, "ECCENTRICITY": 0.00792454, "INCLINATION": 73.9918, "RA_OF_ASC_NODE": 288.6268, "ARG_OF_PERICENTER": 70.8936, "MEAN_ANOMALY": 307.548, "EPHEMERIS_TYPE": 0, "CLASSIFICATION_TYPE": "U", "NORAD_CAT_ID": 35898, "ELEMENT_SET_NO": 999, "REV_AT_EPOCH": 66875, "BSTAR": 0.00065982938, "MEAN_MOTION_DOT": 7.606e-05, "MEAN_MOTION_DDOT": 0}, "tle": {"line1": "1 35898U 93036AUM 25351.10591073  .00007606  00000+0  65983-3 0  9998", "line2": "2 35898  73.9918 288.6268 0079245  70.8936 307.5480 14.94779467668759"}}, "geometry": {"type": "Point", "coordinates": [80.78864514913815, 57.440119718930646]}}, {"type": "Feature", "properties": {"norad_id": 35901, "name": "COSMOS 2251 DEB", "group": "cosmos-2251-debris", "lat": -16.12017393324518, "lon": 7.986003741914957, "alt_km": 543.2448064307655, "timestamp": "2025-12-17T15:50:10.178792+00:00", "meta": {"OBJECT_NAME": "COSMOS 2251 DEB", "OBJECT_ID": "1993-036AUQ", "EPOCH": "2025-12-17T08:00:29.718720", "MEAN_MOTION": 15.07479239, "ECCENTRICITY": 0.00074022, "INCLINATION": 74.0109, "RA_OF_ASC_NODE": 13.411, "ARG_OF_PERICENTER": 347.5455, "MEAN_ANOMALY": 26.4719, "EPHEMERIS_TYPE": 0, "CLASSIFICATION_TYPE": "U", "NORAD_CAT_ID": 35901, "ELEMENT_SET_NO": 999, "REV_AT_EPOCH": 86196, "BSTAR": 0.0023738412, "MEAN_MOTION_DOT": 0.00036185, "MEAN_MOTION_DDOT": 0}, "tle": {"line1": "1 35901U 93036AUQ 25351.33367730  .00036185  00000+0  23738-2 0  9994", "line2": "2 35901  74.0109  13.4110 0007402 347.5455  26.4719 15.07479239861963"}}, "geometry": {"type": "Point", "coordinates": [7.986003741914957, -16.12017393324518]}}, {"type": "Feature", "properties": {"norad_id": 35902, "name": "COSMOS 2251 DEB", "group": "cosmos-2251-debris", "lat": -67.07929025855607, "lon": -177.1369992105448, "alt_km": 763.9310044136464, "timestamp": "2025-12-17T15:50:10.178802+00:00", "meta": {"OBJECT_NAME": "COSMOS 2251 DEB", "OBJECT_ID": "1993-036AUR", "EPOCH": "2025-12-12T01:33:56.017152", "MEAN_MOTION": 14.26898947, "ECCENTRICITY": 0.01020569, "INCLINATION": 73.9828, "RA_OF_ASC_NODE": 235.8058, "ARG_OF_PERICENTER": 350.6999, "MEAN_ANOMALY": 9.2255, "EPHEMERIS_TYPE": 0, "CLASSIFICATION_TYPE": "U", "NORAD_CAT_ID": 35902, "ELEMENT_SET_NO": 999, "REV_AT_EPOCH": 61120, "BSTAR": 0.0016300387, "MEAN_MOTION_DOT": 4.159e-05, "MEAN_MOTION_DDOT": 0}, "tle": {"line1": "1 35902U 93036AUR 25346.06523168  .00004159  00000+0  16300-2 0  9991", "line2": "2 35902  73.9828 235.8058 0102056 350.6999   9.2255 14.26898947611205"}}, "geometry": {"type": "Point", "coordinates": [-177.1369992105448, -67.07929025855607]}}, {"type": "Feature", "properties": {"norad_id": 35905, "name": "COSMOS 2251 DEB", "group": "cosmos-2251-debris", "lat": 69.61928514732995, "lon": -108.75278644216588, "alt_km": 620.7243788597443, "timestamp": "2025-12-17T15:50:10.178812+00:00", "meta": {"OBJECT_NAME": "COSMOS 2251 DEB", "OBJECT_ID": "1993-036AUU", "EPOCH": "2025-12-16T20:16:13.880640", "MEAN_MOTION": 14.99078139, "ECCENTRICITY": 0.00906751, "INCLINATION": 74.0313, "RA_OF_ASC_NODE": 202.4789, "ARG_OF_PERICENTER": 281.603, "MEAN_ANOMALY": 77.4989, "EPHEMERIS_TYPE": 0, "CLASSIFICATION_TYPE": "U", "NORAD_CAT_ID": 35905, "ELEMENT_SET_NO": 999, "REV_AT_EPOCH": 88644, "BSTAR": 0.00037661348, "MEAN_MOTION_DOT": 4.941e-05, "MEAN_MOTION_DDOT": 0}, "tle": {"line1": "1 35905U 93036AUU 25350.84460510  .00004941  00000+0  37661-3 0  9999", "line2": "2 35905  74.0313 202.4789 0090675 281.6030  77.4989 14.99078139886446"}}, "geometry": {"type": "Point", "coordinates": [-108.75278644216588, 69.61928514732995]}}, {"type": "Feature", "properties": {"norad_id": 35959, "name": "COSMOS 2251 DEB", "group": "cosmos-2251-debris", "lat": 37.996433898738935, "lon": 110.13122337421592, "alt_km": 782.0118773176719, "timestamp": "2025-12-17T15:50:10.178823+00:00", "meta": {"OBJECT_NAME": "COSMOS 2251 DEB", "OBJECT_ID": "1993-036AUZ", "EPOCH": "2025-12-17T06:48:57.243168", "MEAN_MOTION": 14.34139383, "ECCENTRICITY": 0.00216954, "INCLINATION": 74.0321, "RA_OF_ASC_NODE": 303.7438, "ARG_OF_PERICENTER": 22.9527, "MEAN_ANOMALY": 337.2589, "EPHEMERIS_TYPE": 0, "CLASSIFICATION_TYPE": "U", "NORAD_CAT_ID": 35959, "ELEMENT_SET_NO": 999, "REV_AT_EPOCH": 84993, "BSTAR": 0.00011197814, "MEAN_MOTION_DOT": 2.88e-06, "MEAN_MOTION_DDOT": 0}, "tle": {"line1": "1 35959U 93036AUZ 25351.28399587  .00000288  00000+0  11198-3 0  9999", "line2": "2 35959  74.0321 303.7438 0021695  22.9527 337.2589 14.34139383849937"}}, "geometry": {"type": "Point", "coordinates": [110.13122337421592, 37.996433898738935]}}, {"type": "Feature", "properties": {"norad_id": 35961, "name": "COSMOS 2251 DEB", "group": "cosmos-2251-debris", "lat": -69.0039932097284, "lon": 146.81922492910348, "alt_km": 1008.4177960437701, "timestamp": "2025-12-17T15:50:10.178833+00:00", "meta": {"OBJECT_NAME": "COSMOS 2251 DEB", "OBJECT_ID": "1993-036AVB", "EPOCH": "2025-12-17T07:40:10.456608", "MEAN_MOTION": 14.0541089, "ECCENTRICITY": 0.01917074, "INCLINATION": 73.9246, "RA_OF_ASC_NODE": 196.1239, "ARG_OF_PERICENTER": 128.5769, "MEAN_ANOMALY": 233.2717, "EPHEMERIS_TYPE": 0, "CLASSIFICATION_TYPE": "U", "NORAD_CAT_ID": 35961, "ELEMENT_SET_NO": 999, "REV_AT_EPOCH": 62746, "BSTAR": 0.0011473118, "MEAN_MOTION_DOT": 2.172e-05, "MEAN_MOTION_DDOT": 0}, "tle": {"line1": "1 35961U 93036AVB 25351.31956547  .00002172  00000+0  11473-2 0  9990", "line2": "2 35961  73.9246 196.1239 0191707 128.5769 233.2717 14.05410890627463"}}, "geometry": {"type": "Point", "coordinates": [146.81922492910348, -69.0039932097284]}}, {"type": "Feature", "properties": {"norad_id": 35979, "name": "COSMOS 2251 DEB", "group": "cosmos-2251-debris", "lat": -41.29239269745073, "lon": -145.82676493158996, "alt_km": 621.9298963065685, "timestamp": "2025-12-17T15:50:10.178844+00:00", "meta": {"OBJECT_NAME": "COSMOS 2251 DEB", "OBJECT_ID": "1993-036AVV", "EPOCH": "2025-12-14T22:58:43.931424", "MEAN_MOTION": 14.74677572, "ECCENTRICITY": 0.0058977, "INCLINATION": 74.0101, "RA_OF_ASC_NODE": 234.0448, "ARG_OF_PERICENTER": 5.7065, "MEAN_ANOMALY": 10.8143, "EPHEMERIS_TYPE": 0, "CLASSIFICATION_TYPE": "U", "NORAD_CAT_ID": 35979, "ELEMENT_SET_NO": 999, "REV_AT_EPOCH": 88666, "BSTAR": 0.00057820557, "MEAN_MOTION_DOT": 3.938e-05, "MEAN_MOTION_DDOT": 0}, "tle": {"line1": "1 35979U 93036AVV 25348.95745291  .00003938  00000+0  57821-3 0  9996", "line2": "2 35979  74.0101 234.0448 0058977   5.7065  10.8143 14.74677572886663"}}, "geometry": {"type": "Point", "coordinates": [-145.82676493158996, -41.29239269745073]}}]}